PAKTES 1A               
1 43529U 18056A   23296.83183145  .00002875  00000+0  29735-3 0  9998
2 43529  98.0142  49.8506 0026123  72.8510 287.5564 14.90668873287374
PRSS 1                  
1 43530U 18056B   23296.82362521  .00001543  00000+0  21894-3 0  9995
2 43530  97.8902  11.3224 0001142  87.0214 273.1128 14.78379538285313
HAIYANG-1C              
1 43609U 18068A   23296.84095544  .00000254  00000+0  10565-3 0  9996
2 43609  98.4029   3.4997 0012041  90.0793 270.1772 14.34232594268430
SSTL S1-4               
1 43618U 18071A   23296.81747898  .00001633  00000+0  15484-3 0  9990
2 43618  97.6281 185.1655 0008640 150.1146 210.0569 14.94880475278341
HAIYANG-2B              
1 43655U 18081A   23296.85796044  .00000019  00000+0  61829-4 0  9995
2 43655  99.3417 303.7415 0000761  15.0665 345.0510 13.79305055251574
CZ-4B R/B               
1 43656U 18081B   23295.77215826  .00000603  00000+0  19878-3 0  9995
2 43656  99.4530 116.3385 0207204 170.8569 189.6477 14.30971596260751
CFOSAT                  
1 43662U 18083A   23296.85217700  .00007112  00000+0  37060-3 0  9992
2 43662  97.3921 312.7880 0000610  53.3529 306.7760 15.16286087275936
2018-083B               
1 43663U 18083B   23296.83605097  .00025341  00000+0  73225-3 0  9998
2 43663  97.3686 322.5468 0007958  42.4576 317.7282 15.35602196276597
2018-083C               
1 43664U 18083C   23296.82601983  .00015996  00000+0  53821-3 0  9993
2 43664  97.3729 318.9352 0010059  46.4325 313.7749 15.30825428276492
2018-083D               
1 43665U 18083D   23296.85379855  .00015940  00000+0  52873-3 0  9992
2 43665  97.3728 319.7206 0011193  45.8495 314.3665 15.31275449276532
CUBEBEL-1 (BSUSAT-1)    
1 43666U 18083E   23296.86168297  .00066203  00000+0  11567-2 0  9992
2 43666  97.3664 330.0734 0007061  29.2075 330.9571 15.50417767277042
2018-083G               
1 43668U 18083G   23296.79411938  .00025255  00000+0  68182-3 0  9997
2 43668  97.3665 320.8958 0007577  42.1282 318.0544 15.37726688276660
CHANGSHAGAOXIN (TY 4-01)
1 43669U 18083H   23296.82800254  .00043785  00000+0  96616-3 0  9996
2 43669  97.3684 323.7692 0006624  38.8397 321.3326 15.43741976276726
TEN-KOH                 
1 43677U 18084G   23296.39023795  .00003486  00000+0  33267-3 0  9992
2 43677  98.0314  78.8451 0015789  85.2317 275.0705 14.93913032271194
DIWATA-2B               
1 43678U 18084H   23296.81017675  .00002297  00000+0  22101-3 0  9994
2 43678  98.0411  83.5650 0010573  96.1499 264.0925 14.93987296271460
STARS-AO                
1 43679U 18084J   23296.36266476  .00006596  00000+0  55798-3 0  9994
2 43679  98.0395  87.1538 0008998  98.1765 262.0477 14.98363586271615
AUTCUBE 2               
1 43681U 18084K   23296.38340104  .00004815  00000+0  42604-3 0  9994
2 43681  98.0392  84.7995 0009693  91.2021 269.0310 14.96751213271470
METOP-C                 
1 43689U 18087A   23296.79121882  .00000186  00000+0  10522-3 0  9991
2 43689  98.7157 354.2628 0003499  58.0964 302.0553 14.21488637257394
ES'HAIL 2               
1 43700U 18090A   23296.83572539  .00000139  00000+0  00000+0 0  9997
2 43700   0.0183 217.9003 0001367  14.1848 126.5303  1.00270113 18221
TIANPING 1B             
1 43714U 18094E   23296.84056159  .00011451  00000+0  34697-3 0  9994
2 43714  97.3874 308.8992 0011744  51.4293 308.8001 15.34244986274244
MOHAMMED VI-B           
1 43717U 18095A   23296.82191712  .00001419  00000+0  20807-3 0  9992
2 43717  97.9410   6.9865 0001060  90.2077 269.9254 14.77084274265228
HYSIS                   
1 43719U 18096A   23296.81097355  .00002037  00000+0  28481-3 0  9995
2 43719  97.8990   0.6014 0002570  45.1960 314.9460 14.78674756264462
GLOBAL-1                
1 43730U 18096M   23296.77001427  .00064770  00000+0  74501-3 0  9994
2 43730  97.3241  24.7842 0008157  72.8242 287.3908 15.61767841273968
COSMOS 2530             
1 43751U 18097A   23296.87566707  .00000043  00000+0  24064-3 0  9998
2 43751  82.5094 102.6973 0019295 348.3809  11.6823 12.42905660222214
COSMOS 2531             
1 43752U 18097B   23296.82180857  .00000061  00000+0  36553-3 0  9998
2 43752  82.5139 103.4326 0016829   6.2028 353.9257 12.42875375222211
COSMOS 2532             
1 43753U 18097C   23296.84898751  .00000050  00000+0  28767-3 0  9996
2 43753  82.5084 102.6414 0018169   8.5071 351.6313 12.42875971222212
MINXSS-2                
1 43758U 18099A   23295.92503581  .00010114  00000+0  73958-3 0  9999
2 43758  97.5899 357.5087 0019402  52.6409 307.6580 15.03655427266925
SIRION PATHFINDER-2     
1 43759U 18099B   23296.13531486  .00004778  00000+0  38953-3 0  9994
2 43759  97.5608 354.1515 0015014  43.6301 316.6107 14.99841567266795
AISTECHSAT 2            
1 43768U 18099L   23296.14102773  .00005168  00000+0  42341-3 0  9998
2 43768  97.5519 352.0542 0010370  49.9652 310.2480 14.99658139266415
FOX-1CLIFF (AO-95)      
1 43770U 18099N   23296.12130718  .00008579  00000+0  66426-3 0  9998
2 43770  97.5780 354.3543 0015248  84.4209 275.8754 15.01591972266791
RANGE-A                 
1 43772U 18099Q   23295.42902508  .00008390  00000+0  61425-3 0  9991
2 43772  97.5604 356.7319 0006278  26.2272 333.9271 15.03801262266778
RANGE-B                 
1 43773U 18099R   23295.90114804  .00005784  00000+0  47343-3 0  9996
2 43773  97.5474 351.6622 0013511  58.2363 302.0175 14.99620016266690
HIBER-2                 
1 43774U 18099S   23296.16709116  .00010383  00000+0  74065-3 0  9994
2 43774  97.5802 357.5709 0012123  51.2618 308.9690 15.04675087266907
MOVE-II                 
1 43780U 18099Y   23296.14710242  .00014948  00000+0  10013-2 0  9994
2 43780  97.5565 357.6203 0009318  79.8092 280.4186 15.06956334266985
VESTA-1                 
1 43781U 18099Z   23295.90510415  .00009398  00000+0  69282-3 0  9994
2 43781  97.5576 354.0216 0008593  70.5392 289.6761 15.03492998266829
SNUSAT-2                
1 43782U 18099AA  23295.70426812  .00005682  00000+0  44585-3 0  9991
2 43782  97.5548 354.2826 0017440  23.5118 336.6900 15.01204460266756
SNUGLITE                
1 43784U 18099AC  23295.73531002  .00005780  00000+0  44684-3 0  9993
2 43784  97.5285 353.9107 0007166  51.8780 308.3090 15.01861070266805
ITASAT                  
1 43786U 18099AE  23296.76446013  .00004542  00000+0  36006-3 0  9990
2 43786  97.5544 355.8420 0020412  65.2278 295.1067 15.00869817266920
KAZSCISAT-1             
1 43787U 18099AF  23295.42154517  .00010652  00000+0  73060-3 0  9998
2 43787  97.5425 354.9397 0008850  60.0845 300.1260 15.06160887266904
EAGLET-I                
1 43790U 18099AJ  23296.11883115  .00005845  00000+0  47092-3 0  9996
2 43790  97.5609 355.5864 0016924  62.3885 297.9054 15.00181470266558
ESEO                    
1 43792U 18099AL  23296.15109311  .00002159  00000+0  18619-3 0  9999
2 43792  97.5539 353.6838 0013344  56.3123 303.9370 14.98242244266544
CSIM-FD                 
1 43793U 18099AM  23296.14348051  .00014410  00000+0  95666-3 0  9995
2 43793  97.5625 359.1019 0015641  54.7628 305.5061 15.07229756266838
ORBWEAVER 1             
1 43795U 18099AP  23296.13965256  .00032536  00000+0  17243-2 0  9991
2 43795  97.5620   2.5858 0002355  10.4336 349.6945 15.15314539267315
THEA                    
1 43796U 18099AQ  23295.75254241  .00006075  00000+0  45252-3 0  9995
2 43796  97.5804 357.5330 0015907  54.4831 305.7876 15.03175409265832
ASTROCAST 0.1           
1 43798U 18099AS  23295.76176791  .00008884  00000+0  62304-3 0  9998
2 43798  97.5713 357.8895 0012227  37.5043 322.7035 15.05355887266942
JY1SAT (JO-97)          
1 43803U 18099AX  23295.92114908  .00009372  00000+0  70574-3 0  9996
2 43803  97.5561 355.3007 0011263  37.0023 323.1977 15.02666844266866
SUOMI-100               
1 43804U 18099AY  23295.68252688  .00005979  00000+0  45587-3 0  9993
2 43804  97.5649 354.8596 0018972  40.9197 319.3448 15.02257305266824
AL-FARABI 2             
1 43805U 18099AZ  23295.92403690  .00011798  00000+0  84244-3 0  9991
2 43805  97.5462 356.2465 0012555  32.3643 327.8351 15.04598070266940
CENTAURI-1              
1 43809U 18099BD  23296.11062018  .00006260  00000+0  49768-3 0  9992
2 43809  97.5554 354.9888 0021065  57.8317 302.4947 15.00602768266548
GLOBAL-2                
1 43812U 18099BG  23296.41857437  .00003785  00000+0  31004-3 0  9999
2 43812  97.5423 354.2155 0014147  48.3717 311.8716 14.99798182266449
BRIO                    
1 43813U 18099BH  23296.42911385  .00012833  00000+0  86860-3 0  9998
2 43813  97.5996   2.0564 0008545  39.3872 320.7975 15.06613037266781
SPACEBEE-5              
1 43817U 18099BM  23296.16744700  .00078733  00000+0  25956-2 0  9997
2 43817  97.5771   9.4717 0002987 336.6320  23.4784 15.31138515267172
SEAHAWK-1               
1 43820U 18099BQ  23295.67273260  .00004560  00000+0  35796-3 0  9995
2 43820  97.5406 353.9573 0015775  66.5321 293.7560 15.01305687266207
SAUDISAT 5A             
1 43831U 18102A   23296.83951317  .00004583  00000+0  26279-3 0  9998
2 43831  97.4415   3.2613 0011494 282.3587  77.6357 15.13015652268673
SAUDISAT 5B             
1 43833U 18102C   23296.83849727  .00004668  00000+0  26355-3 0  9990
2 43833  97.4453   4.7361 0012342 287.5573  72.4309 15.13554063268740
2018-102D               
1 43834U 18102D   23296.82059696  .00008492  00000+0  44132-3 0  9990
2 43834  97.4548   7.1555 0011016 283.0933  76.9070 15.16278036268869
2018-102E               
1 43835U 18102E   23296.86316371  .00015775  00000+0  68210-3 0  9996
2 43835  97.4562  10.2449 0010261 270.6639  89.3421 15.22498073269073
2018-102F               
1 43836U 18102F   23296.85153867  .00016717  00000+0  71364-3 0  9996
2 43836  97.4611  11.4865 0010492 271.1021  88.9014 15.22917750269083
2018-102G               
1 43837U 18102G   23296.83116759  .00018649  00000+0  76795-3 0  9993
2 43837  97.4626  12.4229 0010244 272.3151  87.6913 15.24116473269154
